STARLINK-1864
1 17151C 20088AF  21326.12070929  .00002587  00000-0  17338-3 0  3261
2 17151  53.0531 143.1980 0001776  80.4061 309.3461 15.06385793    17
